ONEWEB-0379             
1 49305U 21090AC  24163.51170768  .00000227  00000+0  57669-3 0  9990
2 49305  87.8969  76.0737 0002019  80.8684 279.2674 13.14502450130912
ONEWEB-0380             
1 49306U 21090AD  24163.53478199  .00000016  00000+0  83211-5 0  9992
2 49306  87.9154  91.3683 0002057  77.8498 282.2865 13.19723656129395
ONEWEB-0381             
1 49307U 21090AE  24163.55987315 -.00000178  00000+0 -47051-3 0  9991
2 49307  87.9217  60.8014 0001858  79.3777 280.7565 13.20773341132729
ONEWEB-0382             
1 49308U 21090AF  24163.47150005  .00000024  00000+0  27699-4 0  9996
2 49308  87.9217  60.8160 0001673  93.1567 266.9758 13.20770310132709
ONEWEB-0383             
1 49309U 21090AG  24163.50535868  .00000207  00000+0  52269-3 0  9998
2 49309  87.8965  76.0635 0001951  85.7901 274.3452 13.14503677130944
ONEWEB-0384             
1 49310U 21090AH  24163.46833763  .00000058  00000+0  11032-3 0  9997
2 49310  87.9219  60.8279 0001626  96.1272 264.0047 13.20770446132710
ONEWEB-0385             
1 49311U 21090AJ  24163.46361407  .00000005  00000+0 -18417-4 0  9997
2 49311  87.9218  60.8302 0001589  87.6605 272.4711 13.20771038132685
ONEWEB-0386             
1 49312U 21090AK  24163.48098453  .00000012  00000+0 -28125-5 0  9994
2 49312  87.9212  60.8219 0001754  89.1763 270.9571 13.20770142132708
